CCSDS_OMM_VERS = 2.0
CREATION_DATE  = 
ORIGINATOR     = 

OBJECT_NAME    = SL-3 R/B
OBJECT_ID      = 1988-032B
CENTER_NAME    = EARTH
REF_FRAME      = TEME
TIME_SYSTEM    = UTC
MEAN_ELEMENT_THEORY = SGP/SGP4

EPOCH          = 2026-03-09T22:19:17.300640
MEAN_MOTION    = 15.19913684
ECCENTRICITY   = .00244288
INCLINATION    = 97.5196
RA_OF_ASC_NODE = 52.1801
ARG_OF_PERICENTER = 230.5802
MEAN_ANOMALY   = 129.3270

EPHEMERIS_TYPE = 0
CLASSIFICATION_TYPE = U
NORAD_CAT_ID   = 19046
ELEMENT_SET_NO = 999
REV_AT_EPOCH   = 5214
BSTAR          = .28784627E-3
MEAN_MOTION_DOT = .6162E-4
MEAN_MOTION_DDOT = 0

CCSDS_OMM_VERS = 2.0
CREATION_DATE  = 
ORIGINATOR     = 

OBJECT_NAME    = SL-16 R/B
OBJECT_ID      = 1988-039B
CENTER_NAME    = EARTH
REF_FRAME      = TEME
TIME_SYSTEM    = UTC
MEAN_ELEMENT_THEORY = SGP/SGP4

EPOCH          = 2026-03-09T23:31:38.445312
MEAN_MOTION    = 14.19615449
ECCENTRICITY   = .00228098
INCLINATION    = 71.0134
RA_OF_ASC_NODE = 67.9328
ARG_OF_PERICENTER = 333.9218
MEAN_ANOMALY   = 26.0756

EPHEMERIS_TYPE = 0
CLASSIFICATION_TYPE = U
NORAD_CAT_ID   = 19120
ELEMENT_SET_NO = 999
REV_AT_EPOCH   = 95842
BSTAR          = -.5864593E-5
MEAN_MOTION_DOT = -.61E-6
MEAN_MOTION_DDOT = 0

CCSDS_OMM_VERS = 2.0
CREATION_DATE  = 
ORIGINATOR     = 

OBJECT_NAME    = COSMOS 1953
OBJECT_ID      = 1988-050A
CENTER_NAME    = EARTH
REF_FRAME      = TEME
TIME_SYSTEM    = UTC
MEAN_ELEMENT_THEORY = SGP/SGP4

EPOCH          = 2026-03-09T18:09:26.993952
MEAN_MOTION    = 15.28528086
ECCENTRICITY   = .00124769
INCLINATION    = 82.5105
RA_OF_ASC_NODE = 158.1800
ARG_OF_PERICENTER = 122.2454
MEAN_ANOMALY   = 237.9996

EPHEMERIS_TYPE = 0
CLASSIFICATION_TYPE = U
NORAD_CAT_ID   = 19210
ELEMENT_SET_NO = 999
REV_AT_EPOCH   = 3779
BSTAR          = .29210954E-3
MEAN_MOTION_DOT = .8158E-4
MEAN_MOTION_DDOT = 0

CCSDS_OMM_VERS = 2.0
CREATION_DATE  = 
ORIGINATOR     = 

OBJECT_NAME    = SL-8 R/B
OBJECT_ID      = 1988-053B
CENTER_NAME    = EARTH
REF_FRAME      = TEME
TIME_SYSTEM    = UTC
MEAN_ELEMENT_THEORY = SGP/SGP4

EPOCH          = 2026-03-09T14:20:34.971936
MEAN_MOTION    = 14.38915667
ECCENTRICITY   = .0021414
INCLINATION    = 74.0460
RA_OF_ASC_NODE = 112.6362
ARG_OF_PERICENTER = 291.8980
MEAN_ANOMALY   = 184.3804

EPHEMERIS_TYPE = 0
CLASSIFICATION_TYPE = U
NORAD_CAT_ID   = 19257
ELEMENT_SET_NO = 999
REV_AT_EPOCH   = 97658
BSTAR          = .10511E-3
MEAN_MOTION_DOT = .298E-5
MEAN_MOTION_DDOT = 0

CCSDS_OMM_VERS = 2.0
CREATION_DATE  = 
ORIGINATOR     = 

OBJECT_NAME    = COSMOS 1975
OBJECT_ID      = 1988-093A
CENTER_NAME    = EARTH
REF_FRAME      = TEME
TIME_SYSTEM    = UTC
MEAN_ELEMENT_THEORY = SGP/SGP4

EPOCH          = 2026-03-09T14:15:08.474112
MEAN_MOTION    = 15.28069249
ECCENTRICITY   = .0012117
INCLINATION    = 82.5181
RA_OF_ASC_NODE = 117.7814
ARG_OF_PERICENTER = 163.8427
MEAN_ANOMALY   = 196.3201

EPHEMERIS_TYPE = 0
CLASSIFICATION_TYPE = U
NORAD_CAT_ID   = 19573
ELEMENT_SET_NO = 999
REV_AT_EPOCH   = 1939
BSTAR          = .2787E-3
MEAN_MOTION_DOT = .7676E-4
MEAN_MOTION_DDOT = 0

CCSDS_OMM_VERS = 2.0
CREATION_DATE  = 
ORIGINATOR     = 

OBJECT_NAME    = SL-14 R/B
OBJECT_ID      = 1988-093B
CENTER_NAME    = EARTH
REF_FRAME      = TEME
TIME_SYSTEM    = UTC
MEAN_ELEMENT_THEORY = SGP/SGP4

EPOCH          = 2026-03-09T22:21:05.482944
MEAN_MOTION    = 14.85656883
ECCENTRICITY   = .00217506
INCLINATION    = 82.5306
RA_OF_ASC_NODE = 41.8167
ARG_OF_PERICENTER = 40.7424
MEAN_ANOMALY   = 18.5334

EPHEMERIS_TYPE = 0
CLASSIFICATION_TYPE = U
NORAD_CAT_ID   = 19574
ELEMENT_SET_NO = 999
REV_AT_EPOCH   = 105
BSTAR          = .8475997E-4
MEAN_MOTION_DOT = .762E-5
MEAN_MOTION_DDOT = 0

CCSDS_OMM_VERS = 2.0
CREATION_DATE  = 
ORIGINATOR     = 

OBJECT_NAME    = SL-16 R/B
OBJECT_ID      = 1988-102B
CENTER_NAME    = EARTH
REF_FRAME      = TEME
TIME_SYSTEM    = UTC
MEAN_ELEMENT_THEORY = SGP/SGP4

EPOCH          = 2026-03-09T14:56:14.556480
MEAN_MOTION    = 14.16151991
ECCENTRICITY   = .0013948
INCLINATION    = 71.0001
RA_OF_ASC_NODE = 151.6391
ARG_OF_PERICENTER = 1.7744
MEAN_ANOMALY   = 358.3426

EPHEMERIS_TYPE = 0
CLASSIFICATION_TYPE = U
NORAD_CAT_ID   = 19650
ELEMENT_SET_NO = 999
REV_AT_EPOCH   = 92688
BSTAR          = .18009E-3
MEAN_MOTION_DOT = .309E-5
MEAN_MOTION_DDOT = 0

CCSDS_OMM_VERS = 2.0
CREATION_DATE  = 
ORIGINATOR     = 

OBJECT_NAME    = INTERCOSMOS 24
OBJECT_ID      = 1989-080A
CENTER_NAME    = EARTH
REF_FRAME      = TEME
TIME_SYSTEM    = UTC
MEAN_ELEMENT_THEORY = SGP/SGP4

EPOCH          = 2026-03-09T13:32:31.498080
MEAN_MOTION    = 12.59557530
ECCENTRICITY   = .1186701
INCLINATION    = 82.6027
RA_OF_ASC_NODE = 104.4860
ARG_OF_PERICENTER = 293.1117
MEAN_ANOMALY   = 54.9307

EPHEMERIS_TYPE = 0
CLASSIFICATION_TYPE = U
NORAD_CAT_ID   = 20261
ELEMENT_SET_NO = 999
REV_AT_EPOCH   = 66678
BSTAR          = .26093E-3
MEAN_MOTION_DOT = .876E-5
MEAN_MOTION_DDOT = 0

CCSDS_OMM_VERS = 2.0
CREATION_DATE  = 
ORIGINATOR     = 

OBJECT_NAME    = SL-14 R/B
OBJECT_ID      = 1989-080C
CENTER_NAME    = EARTH
REF_FRAME      = TEME
TIME_SYSTEM    = UTC
MEAN_ELEMENT_THEORY = SGP/SGP4

EPOCH          = 2026-03-09T19:06:04.869216
MEAN_MOTION    = 12.50493802
ECCENTRICITY   = .12305764
INCLINATION    = 82.5975
RA_OF_ASC_NODE = 173.1181
ARG_OF_PERICENTER = 184.5069
MEAN_ANOMALY   = 174.4058

EPHEMERIS_TYPE = 0
CLASSIFICATION_TYPE = U
NORAD_CAT_ID   = 20262
ELEMENT_SET_NO = 999
REV_AT_EPOCH   = 66016
BSTAR          = .21561438E-3
MEAN_MOTION_DOT = .731E-5
MEAN_MOTION_DDOT = 0

CCSDS_OMM_VERS = 2.0
CREATION_DATE  = 
ORIGINATOR     = 

OBJECT_NAME    = DELTA 1 R/B
OBJECT_ID      = 1989-089B
CENTER_NAME    = EARTH
REF_FRAME      = TEME
TIME_SYSTEM    = UTC
MEAN_ELEMENT_THEORY = SGP/SGP4

EPOCH          = 2026-03-09T13:14:40.767936
MEAN_MOTION    = 14.50662814
ECCENTRICITY   = .00704638
INCLINATION    = 97.0705
RA_OF_ASC_NODE = 276.0125
ARG_OF_PERICENTER = 122.4096
MEAN_ANOMALY   = 238.3945

EPHEMERIS_TYPE = 0
CLASSIFICATION_TYPE = U
NORAD_CAT_ID   = 20323
ELEMENT_SET_NO = 999
REV_AT_EPOCH   = 89571
BSTAR          = .11170257E-3
MEAN_MOTION_DOT = .418E-5
MEAN_MOTION_DDOT = 0

CCSDS_OMM_VERS = 2.0
CREATION_DATE  = 
ORIGINATOR     = 

OBJECT_NAME    = ARIANE 40 R/B
OBJECT_ID      = 1990-005H
CENTER_NAME    = EARTH
REF_FRAME      = TEME
TIME_SYSTEM    = UTC
MEAN_ELEMENT_THEORY = SGP/SGP4

EPOCH          = 2026-03-09T17:51:25.049088
MEAN_MOTION    = 14.39870541
ECCENTRICITY   = .00098566
INCLINATION    = 98.3083
RA_OF_ASC_NODE = 129.4039
ARG_OF_PERICENTER = 198.4111
MEAN_ANOMALY   = 161.6722

EPHEMERIS_TYPE = 0
CLASSIFICATION_TYPE = U
NORAD_CAT_ID   = 20443
ELEMENT_SET_NO = 999
REV_AT_EPOCH   = 89281
BSTAR          = .12123888E-3
MEAN_MOTION_DOT = .339E-5
MEAN_MOTION_DDOT = 0

CCSDS_OMM_VERS = 2.0
CREATION_DATE  = 
ORIGINATOR     = 

OBJECT_NAME    = DELTA 2 R/B(1)
OBJECT_ID      = 1990-008B
CENTER_NAME    = EARTH
REF_FRAME      = TEME
TIME_SYSTEM    = UTC
MEAN_ELEMENT_THEORY = SGP/SGP4

EPOCH          = 2026-03-09T08:59:25.462464
MEAN_MOTION    = 15.55957726
ECCENTRICITY   = .00854397
INCLINATION    = 35.6039
RA_OF_ASC_NODE = 176.9220
ARG_OF_PERICENTER = 255.8292
MEAN_ANOMALY   = 103.2939

EPHEMERIS_TYPE = 0
CLASSIFICATION_TYPE = U
NORAD_CAT_ID   = 20453
ELEMENT_SET_NO = 999
REV_AT_EPOCH   = 92608
BSTAR          = .75711194E-3
MEAN_MOTION_DOT = .64698E-3
MEAN_MOTION_DDOT = 0

