SL-3 R/B                
1 19046U 88032B   26068.93006135  .00006162  00000+0  28785-3 0  9997
2 19046  97.5196  52.1801 0024428 230.5802 129.3270 15.19913684 52149
SL-16 R/B               
1 19120U 88039B   26068.98030608 -.00000061  00000+0 -58646-5 0  9999
2 19120  71.0134  67.9328 0022809 333.9218  26.0756 14.19615449958424
COSMOS 1953             
1 19210U 88050A   26068.75656243  .00008158  00000+0  29211-3 0  9993
2 19210  82.5105 158.1800 0012476 122.2454 237.9996 15.28528086 37795
SL-8 R/B                
1 19257U 88053B   26068.59762699  .00000298  00000+0  10511-3 0  9992
2 19257  74.0460 112.6362 0021414 291.8980 184.3804 14.38915667976580
COSMOS 1975             
1 19573U 88093A   26068.59384808  .00007676  00000+0  27870-3 0  9992
2 19573  82.5181 117.7814 0012117 163.8427 196.3201 15.28069249 19394
SL-14 R/B               
1 19574U 88093B   26068.93131346  .00000762  00000+0  84760-4 0  9999
2 19574  82.5306  41.8167 0021750  40.7424  18.5334 14.85656883  1059
SL-16 R/B               
1 19650U 88102B   26068.62239070  .00000309  00000+0  18009-3 0  9993
2 19650  71.0001 151.6391 0013948   1.7744 358.3426 14.16151991926888
INTERCOSMOS 24          
1 20261U 89080A   26068.56425345  .00000876  00000+0  26093-3 0  9995
2 20261  82.6027 104.4860 1186701 293.1117  54.9307 12.59557530666782
SL-14 R/B               
1 20262U 89080C   26068.79588969  .00000731  00000+0  21561-3 0  9998
2 20262  82.5975 173.1181 1230576 184.5069 174.4058 12.50493802660161
DELTA 1 R/B             
1 20323U 89089B   26068.55186074  .00000418  00000+0  11170-3 0  9997
2 20323  97.0705 276.0125 0070463 122.4096 238.3945 14.50662814895718
ARIANE 40 R/B           
1 20443U 90005H   26068.74403992  .00000339  00000+0  12124-3 0  9994
2 20443  98.3083 129.4039 0009856 198.4111 161.6722 14.39870541892812
DELTA 2 R/B(1)          
1 20453U 90008B   26068.37460026  .00064698  00000+0  75711-3 0  9997
2 20453  35.6039 176.9220 0085439 255.8292 103.2939 15.55957726926085
